[{"OBJECT_NAME":"SUOMI NPP","OBJECT_ID":"2011-061A","EPOCH":"2022-08-17T12:31:17.010624","MEAN_MOTION":14.19538436,"ECCENTRICITY":0.0001263,"INCLINATION":98.7335,"RA_OF_ASC_NODE":167.2321,"ARG_OF_PERICENTER":85.8567,"MEAN_ANOMALY":333.7729,"EPHEMERIS_TYPE":0,"CLASSIFICATION_TYPE":"U","NORAD_CAT_ID":37849,"ELEMENT_SET_NO":999,"REV_AT_EPOCH":55985,"BSTAR":4.9017e-5,"MEAN_MOTION_DOT":6.0e-7,"MEAN_MOTION_DDOT":0},{"OBJECT_NAME":"FENGYUN 2F","OBJECT_ID":"2012-002A","EPOCH":"2022-08-15T04:22:01.863264","MEAN_MOTION":1.00273528,"ECCENTRICITY":4.95e-5,"INCLINATION":3.9316,"RA_OF_ASC_NODE":79.251,"ARG_OF_PERICENTER":98.6843,"MEAN_ANOMALY":323.3163,"EPHEMERIS_TYPE":0,"CLASSIFICATION_TYPE":"U","NORAD_CAT_ID":38049,"ELEMENT_SET_NO":999,"REV_AT_EPOCH":3883,"BSTAR":0,"MEAN_MOTION_DOT":-3.74e-6,"MEAN_MOTION_DDOT":0},{"OBJECT_NAME":"METEOSAT-10 (MSG-3)","OBJECT_ID":"2012-035B","EPOCH":"2022-08-13T16:36:42.770016","MEAN_MOTION":1.00269641,"ECCENTRICITY":7.33e-5,"INCLINATION":1.6067,"RA_OF_ASC_NODE":44.3385,"ARG_OF_PERICENTER":52.5636,"MEAN_ANOMALY":123.5578,"EPHEMERIS_TYPE":0,"CLASSIFICATION_TYPE":"U","NORAD_CAT_ID":38552,"ELEMENT_SET_NO":999,"REV_AT_EPOCH":3678,"BSTAR":0,"MEAN_MOTION_DOT":4.1e-7,"MEAN_MOTION_DDOT":0},{"OBJECT_NAME":"METOP-B","OBJECT_ID":"2012-049A","EPOCH":"2022-08-17T12:30:48.006144","MEAN_MOTION":14.21501806,"ECCENTRICITY":7.2e-5,"INCLINATION":98.6914,"RA_OF_ASC_NODE":288.3576,"ARG_OF_PERICENTER":134.2961,"MEAN_ANOMALY":333.2154,"EPHEMERIS_TYPE":0,"CLASSIFICATION_TYPE":"U","NORAD_CAT_ID":38771,"ELEMENT_SET_NO":999,"REV_AT_EPOCH":51440,"BSTAR":4.4074e-5,"MEAN_MOTION_DOT":5.3e-7,"MEAN_MOTION_DDOT":0},{"OBJECT_NAME":"FENGYUN 3C","OBJECT_ID":"2013-052A","EPOCH":"2022-08-17T12:52:47.795520","MEAN_MOTION":14.15936965,"ECCENTRICITY":0.0012346,"INCLINATION":98.4517,"RA_OF_ASC_NODE":254.5511,"ARG_OF_PERICENTER":97.7499,"MEAN_ANOMALY":262.5083,"EPHEMERIS_TYPE":0,"CLASSIFICATION_TYPE":"U","NORAD_CAT_ID":39260,"ELEMENT_SET_NO":999,"REV_AT_EPOCH":46056,"BSTAR":4.8053e-5,"MEAN_MOTION_DOT":5.4e-7,"MEAN_MOTION_DDOT":0},{"OBJECT_NAME":"METEOR-M 2","OBJECT_ID":"2014-037A","EPOCH":"2022-08-17T19:20:57.217920","MEAN_MOTION":14.20715708,"ECCENTRICITY":0.0006472,"INCLINATION":98.4313,"RA_OF_ASC_NODE":244.8096,"ARG_OF_PERICENTER":134.5484,"MEAN_ANOMALY":225.6225,"EPHEMERIS_TYPE":0,"CLASSIFICATION_TYPE":"U","NORAD_CAT_ID":40069,"ELEMENT_SET_NO":999,"REV_AT_EPOCH":42057,"BSTAR":2.0259e-5,"MEAN_MOTION_DOT":2.0e-8,"MEAN_MOTION_DDOT":0},{"OBJECT_NAME":"HIMAWARI-8","OBJECT_ID":"2014-060A","EPOCH":"2022-08-14T20:53:12.355296","MEAN_MOTION":1.00272821,"ECCENTRICITY":9.8e-5,"INCLINATION":0.0404,"RA_OF_ASC_NODE":255.4105,"ARG_OF_PERICENTER":251.2151,"MEAN_ANOMALY":270.5861,"EPHEMERIS_TYPE":0,"CLASSIFICATION_TYPE":"U","NORAD_CAT_ID":40267,"ELEMENT_SET_NO":999,"REV_AT_EPOCH":2869,"BSTAR":0,"MEAN_MOTION_DOT":-2.92e-6,"MEAN_MOTION_DDOT":0},{"OBJECT_NAME":"FENGYUN 2G","OBJECT_ID":"2014-090A","EPOCH":"2022-08-16T16:51:40.497120","MEAN_MOTION":1.00266859,"ECCENTRICITY":5.15e-5,"INCLINATION":2.0834,"RA_OF_ASC_NODE":88.9099,"ARG_OF_PERICENTER":260.4333,"MEAN_ANOMALY":328.3261,"EPHEMERIS_TYPE":0,"CLASSIFICATION_TYPE":"U","NORAD_CAT_ID":40367,"ELEMENT_SET_NO":999,"REV_AT_EPOCH":2799,"BSTAR":0,"MEAN_MOTION_DOT":-3.14e-6,"MEAN_MOTION_DDOT":0},{"OBJECT_NAME":"METEOSAT-11 (MSG-4)","OBJECT_ID":"2015-034A","EPOCH":"2022-08-13T18:17:17.594016","MEAN_MOTION":1.00267236,"ECCENTRICITY":0.0001282,"INCLINATION":0.4045,"RA_OF_ASC_NODE":67.842,"ARG_OF_PERICENTER":32.2835,"MEAN_ANOMALY":136.1372,"EPHEMERIS_TYPE":0,"CLASSIFICATION_TYPE":"U","NORAD_CAT_ID":40732,"ELEMENT_SET_NO":999,"REV_AT_EPOCH":2595,"BSTAR":0,"MEAN_MOTION_DOT":-2.5e-7,"MEAN_MOTION_DDOT":0},{"OBJECT_NAME":"ELEKTRO-L 2","OBJECT_ID":"2015-074A","EPOCH":"2022-08-17T20:22:19.046784","MEAN_MOTION":1.00271817,"ECCENTRICITY":0.0002349,"INCLINATION":3.1377,"RA_OF_ASC_NODE":87.4334,"ARG_OF_PERICENTER":76.4274,"MEAN_ANOMALY":93.4512,"EPHEMERIS_TYPE":0,"CLASSIFICATION_TYPE":"U","NORAD_CAT_ID":41105,"ELEMENT_SET_NO":999,"REV_AT_EPOCH":2448,"BSTAR":0,"MEAN_MOTION_DOT":-1.26e-6,"MEAN_MOTION_DDOT":0},{"OBJECT_NAME":"HIMAWARI-9","OBJECT_ID":"2016-064A","EPOCH":"2022-08-14T20:53:12.357024","MEAN_MOTION":1.00270653,"ECCENTRICITY":7.09e-5,"INCLINATION":0.0146,"RA_OF_ASC_NODE":83.1195,"ARG_OF_PERICENTER":69.9306,"MEAN_ANOMALY":264.267,"EPHEMERIS_TYPE":0,"CLASSIFICATION_TYPE":"U","NORAD_CAT_ID":41836,"ELEMENT_SET_NO":999,"REV_AT_EPOCH":2112,"BSTAR":0,"MEAN_MOTION_DOT":-2.92e-6,"MEAN_MOTION_DDOT":0},{"OBJECT_NAME":"GOES 16","OBJECT_ID":"2016-071A","EPOCH":"2022-08-17T06:52:30.586368","MEAN_MOTION":1.00271872,"ECCENTRICITY":6.23e-5,"INCLINATION":0.0585,"RA_OF_ASC_NODE":270.2212,"ARG_OF_PERICENTER":288.4715,"MEAN_ANOMALY":154.8662,"EPHEMERIS_TYPE":0,"CLASSIFICATION_TYPE":"U","NORAD_CAT_ID":41866,"ELEMENT_SET_NO":999,"REV_AT_EPOCH":2107,"BSTAR":0,"MEAN_MOTION_DOT":-2.59e-6,"MEAN_MOTION_DDOT":0},{"OBJECT_NAME":"FENGYUN 4A","OBJECT_ID":"2016-077A","EPOCH":"2022-08-17T21:19:03.657792","MEAN_MOTION":1.00267037,"ECCENTRICITY":0.0003159,"INCLINATION":0.1248,"RA_OF_ASC_NODE":82.4246,"ARG_OF_PERICENTER":39.3634,"MEAN_ANOMALY":268.7844,"EPHEMERIS_TYPE":0,"CLASSIFICATION_TYPE":"U","NORAD_CAT_ID":41882,"ELEMENT_SET_NO":999,"REV_AT_EPOCH":2095,"BSTAR":0,"MEAN_MOTION_DOT":-3.38e-6,"MEAN_MOTION_DDOT":0},{"OBJECT_NAME":"CYGFM05","OBJECT_ID":"2016-078A","EPOCH":"2022-08-17T06:33:28.572768","MEAN_MOTION":15.16589269,"ECCENTRICITY":0.0015922,"INCLINATION":34.9552,"RA_OF_ASC_NODE":182.9681,"ARG_OF_PERICENTER":274.7655,"MEAN_ANOMALY":85.1238,"EPHEMERIS_TYPE":0,"CLASSIFICATION_TYPE":"U","NORAD_CAT_ID":41884,"ELEMENT_SET_NO":999,"REV_AT_EPOCH":31412,"BSTAR":0.00012584,"MEAN_MOTION_DOT":2.49e-5,"MEAN_MOTION_DDOT":0},{"OBJECT_NAME":"CYGFM04","OBJECT_ID":"2016-078B","EPOCH":"2022-08-16T23:23:44.290752","MEAN_MOTION":15.17125303,"ECCENTRICITY":0.0014332,"INCLINATION":34.9485,"RA_OF_ASC_NODE":173.7191,"ARG_OF_PERICENTER":288.3935,"MEAN_ANOMALY":71.5219,"EPHEMERIS_TYPE":0,"CLASSIFICATION_TYPE":"U","NORAD_CAT_ID":41885,"ELEMENT_SET_NO":999,"REV_AT_EPOCH":31418,"BSTAR":0.00013387,"MEAN_MOTION_DOT":2.691e-5,"MEAN_MOTION_DDOT":0},{"OBJECT_NAME":"CYGFM02","OBJECT_ID":"2016-078C","EPOCH":"2022-08-16T21:33:29.850624","MEAN_MOTION":15.17162228,"ECCENTRICITY":0.0015071,"INCLINATION":34.9577,"RA_OF_ASC_NODE":176.4243,"ARG_OF_PERICENTER":282.2749,"MEAN_ANOMALY":77.6276,"EPHEMERIS_TYPE":0,"CLASSIFICATION_TYPE":"U","NORAD_CAT_ID":41886,"ELEMENT_SET_NO":999,"REV_AT_EPOCH":31409,"BSTAR":0.00013716,"MEAN_MOTION_DOT":2.762e-5,"MEAN_MOTION_DDOT":0},{"OBJECT_NAME":"CYGFM01","OBJECT_ID":"2016-078D","EPOCH":"2022-08-16T07:05:20.482080","MEAN_MOTION":15.16390377,"ECCENTRICITY":0.00164,"INCLINATION":34.952,"RA_OF_ASC_NODE":191.5482,"ARG_OF_PERICENTER":265.8651,"MEAN_ANOMALY":94.0186,"EPHEMERIS_TYPE":0,"CLASSIFICATION_TYPE":"U","NORAD_CAT_ID":41887,"ELEMENT_SET_NO":999,"REV_AT_EPOCH":31382,"BSTAR":0.00012013,"MEAN_MOTION_DOT":2.362e-5,"MEAN_MOTION_DDOT":0}]