SUOMI NPP               
1 37849U 11061A   22229.52172466  .00000060  00000+0  49017-4 0  9990
2 37849  98.7335 167.2321 0001263  85.8567 333.7729 14.19538436559851
FENGYUN 2F              
1 38049U 12002A   22227.18196601 -.00000374  00000+0  00000+0 0  9999
2 38049   3.9316  79.2510 0000495  98.6843 323.3163  1.00273528 38839
METEOSAT-10 (MSG-3)     
1 38552U 12035B   22225.69216169  .00000041  00000+0  00000+0 0  9990
2 38552   1.6067  44.3385 0000733  52.5636 123.5578  1.00269641 36786
METOP-B                 
1 38771U 12049A   22229.52138896  .00000053  00000+0  44074-4 0  9991
2 38771  98.6914 288.3576 0000720 134.2961 333.2154 14.21501806514402
FENGYUN 3C              
1 39260U 13052A   22229.53666430  .00000054  00000+0  48053-4 0  9993
2 39260  98.4517 254.5511 0012346  97.7499 262.5083 14.15936965460566
METEOR-M 2              
1 40069U 14037A   22229.80621780  .00000002  00000+0  20259-4 0  9996
2 40069  98.4313 244.8096 0006472 134.5484 225.6225 14.20715708420577
HIMAWARI-8              
1 40267U 14060A   22226.87028189 -.00000292  00000+0  00000+0 0  9999
2 40267   0.0404 255.4105 0000980 251.2151 270.5861  1.00272821 28692
FENGYUN 2G              
1 40367U 14090A   22228.70255205 -.00000314  00000+0  00000+0 0  9993
2 40367   2.0834  88.9099 0000515 260.4333 328.3261  1.00266859 27993
METEOSAT-11 (MSG-4)     
1 40732U 15034A   22225.76200919 -.00000025  00000+0  00000+0 0  9992
2 40732   0.4045  67.8420 0001282  32.2835 136.1372  1.00267236 25955
ELEKTRO-L 2             
1 41105U 15074A   22229.84883156 -.00000126  00000+0  00000+0 0  9996
2 41105   3.1377  87.4334 0002349  76.4274  93.4512  1.00271817 24480
HIMAWARI-9              
1 41836U 16064A   22226.87028191 -.00000292  00000+0  00000+0 0  9991
2 41836   0.0146  83.1195 0000709  69.9306 264.2670  1.00270653 21128
GOES 16                 
1 41866U 16071A   22229.28646512 -.00000259  00000+0  00000+0 0  9996
2 41866   0.0585 270.2212 0000623 288.4715 154.8662  1.00271872 21077
FENGYUN 4A              
1 41882U 16077A   22229.88823678 -.00000338  00000+0  00000+0 0  9994
2 41882   0.1248  82.4246 0003159  39.3634 268.7844  1.00267037 20953
CYGFM05                 
1 41884U 16078A   22229.27324737  .00002490  00000+0  12584-3 0  9996
2 41884  34.9552 182.9681 0015922 274.7655  85.1238 15.16589269314125
CYGFM04                 
1 41885U 16078B   22228.97481818  .00002691  00000+0  13387-3 0  9992
2 41885  34.9485 173.7191 0014332 288.3935  71.5219 15.17125303314181
CYGFM02                 
1 41886U 16078C   22228.89826216  .00002762  00000+0  13716-3 0  9994
2 41886  34.9577 176.4243 0015071 282.2749  77.6276 15.17162228314096
CYGFM01                 
1 41887U 16078D   22228.29537595  .00002362  00000+0  12013-3 0  9993
2 41887  34.9520 191.5482 0016400 265.8651  94.0186 15.16390377313824
